NORAD_CAT_ID,OBJECT_NAME,OBJECT_TYPE,EPOCH,MEAN_MOTION,ECCENTRICITY,INCLINATION,RA_OF_ASC_NODE,ARG_OF_PERICENTER,MEAN_ANOMALY,BSTAR,MEAN_MOTION_DOT,MEAN_MOTION_DDOT,TLE_LINE0,TLE_LINE1,TLE_LINE2,SEMIMAJOR_AXIS,PERIOD,APOGEE,PERIGEE,DECAYED
52269.0,STARLINK-3791,PAYLOAD,2023-10-13 14:45:47,15.08839697,0.0001493,53.2164,90.9464,88.9569,271.1595,0.0003968,6.033e-05,0.0,0 STARLINK-3791,1 52269U 22041J   23286.61513550  .00006033  00000-0  39680-3 0  9991,2 52269  53.2164  90.9464 0001493  88.9569 271.1595 15.08839697 81804,6917.881,95.438,540.779,538.713,0.0
52269.0,STARLINK-3791,PAYLOAD,2023-10-13 17:56:33,15.08845073,0.0001344,53.2154,90.353,81.4698,278.6447,0.00046763,7.163e-05,0.0,0 STARLINK-3791,1 52269U 22041J   23286.74761429  .00007163  00000-0  46763-3 0  9990,2 52269  53.2154  90.3530 0001344  81.4698 278.6447 15.08845073 81822,6917.865,95.437,540.66,538.8,0.0
52269.0,STARLINK-3791,PAYLOAD,2023-10-14 13:01:11,15.08838977,0.0001361,53.2158,86.7844,78.7523,281.3622,8.9911e-05,1.143e-05,0.0,0 STARLINK-3791,1 52269U 22041J   23287.54249608  .00001143  00000-0  89911-4 0  9994,2 52269  53.2158  86.7844 0001361  78.7523 281.3622 15.08838977 81942,6917.884,95.438,540.69,538.807,0.0
52269.0,STARLINK-3791,PAYLOAD,2023-10-14 16:11:57,15.08842411,0.0001328,53.2154,86.1909,81.5269,278.5873,0.00015081,2.113e-05,0.0,0 STARLINK-3791,1 52269U 22041J   23287.67497460  .00002113  00000-0  15081-3 0  9993,2 52269  53.2154  86.1909 0001328  81.5269 278.5873 15.08842411 83188,6917.873,95.437,540.657,538.819,0.0
52269.0,STARLINK-3791,PAYLOAD,2023-10-15 14:27:22,15.08835209,0.0001293,53.2152,82.0285,84.2586,275.8553,-2.7426e-05,-7.24e-06,0.0,0 STARLINK-3791,1 52269U 22041J   23288.60233961 -.00000724  00000-0 -27426-4 0  9996,2 52269  53.2152  82.0285 0001293  84.2586 275.8553 15.08835209 82104,6917.895,95.438,540.655,538.866,0.0
52269.0,STARLINK-3791,PAYLOAD,2023-10-15 19:13:31,15.08839115,0.0001308,53.2158,81.1357,78.8798,281.2341,5.703e-05,6.2e-06,0.0,0 STARLINK-3791,1 52269U 22041J   23288.80106026  .00000620  00000-0  57030-4 0  9996,2 52269  53.2158  81.1357 0001308  78.8798 281.2341 15.08839115 83355,6917.883,95.438,540.653,538.843,0.0
52269.0,STARLINK-3791,PAYLOAD,2023-10-16 14:18:08,15.08861071,0.0001399,53.2171,77.5669,74.0658,286.0488,-0.00017055,-3.003e-05,0.0,0 STARLINK-3791,1 52269U 22041J   23289.59593371 -.00003003  00000-0 -17055-3 0  9998,2 52269  53.2171  77.5669 0001399  74.0658 286.0488 15.08861071 82257,6917.816,95.436,540.649,538.713,0.0
52269.0,STARLINK-3791,PAYLOAD,2023-10-16 19:04:17,15.08861525,0.0001408,53.2162,76.6749,77.6155,282.4994,-0.00025356,-4.324e-05,0.0,0 STARLINK-3791,1 52269U 22041J   23289.79464650 -.00004324  00000-0 -25356-3 0  9997,2 52269  53.2162  76.6749 0001408  77.6155 282.4994 15.08861525 83503,6917.815,95.436,540.654,538.706,0.0
52269.0,STARLINK-3791,PAYLOAD,2023-10-17 09:22:47,15.08837438,0.0001563,53.2163,73.9986,75.077,285.0395,6.8374e-05,8e-06,0.0,0 STARLINK-3791,1 52269U 22041J   23290.39082270  .00000800  00000-0  68374-4 0  9990,2 52269  53.2163  73.9986 0001563  75.0770 285.0395 15.08837438 83593,6917.888,95.438,540.834,538.672,0.0
52269.0,STARLINK-3791,PAYLOAD,2023-10-18 02:52:01,15.08843317,0.0001378,53.2162,70.7268,88.236,271.879,0.00013704,1.894e-05,0.0,0 STARLINK-3791,1 52269U 22041J   23291.11945973  .00001894  00000-0  13704-3 0  9999,2 52269  53.2162  70.7268 0001378  88.2360 271.8790 15.08843317 82487,6917.87,95.437,540.689,538.782,0.0
52269.0,STARLINK-3791,PAYLOAD,2023-10-18 15:35:06,15.08841974,0.0001242,53.2161,68.3498,87.8542,272.2593,0.0001045,1.376e-05,0.0,0 STARLINK-3791,1 52269U 22041J   23291.64938070  .00001376  00000-0  10450-3 0  9997,2 52269  53.2161  68.3498 0001242  87.8542 272.2593 15.08841974 83788,6917.874,95.437,540.599,538.88,0.0
52269.0,STARLINK-3791,PAYLOAD,2023-10-19 12:15:06,15.08848562,0.0001497,53.216,64.4837,91.4334,268.683,0.00016151,2.284e-05,0.0,0 STARLINK-3791,1 52269U 22041J   23292.51049749  .00002284  00000-0  16151-3 0  9993,2 52269  53.2160  64.4837 0001497  91.4334 268.6830 15.08848562 82695,6917.854,95.437,540.755,538.684,0.0
52269.0,STARLINK-3791,PAYLOAD,2023-10-19 18:36:39,15.08857294,0.0001546,53.216,63.2919,103.1744,256.9421,0.00032171,4.838e-05,0.0,0 STARLINK-3791,1 52269U 22041J   23292.77545167  .00004838  00000-0  32171-3 0  9993,2 52269  53.2160  63.2919 0001546 103.1744 256.9421 15.08857294 83952,6917.828,95.436,540.762,538.623,0.0
52269.0,STARLINK-3791,PAYLOAD,2023-10-20 12:05:54,15.08834106,0.0001345,53.2164,60.023,90.7937,269.3209,-6.163e-06,-3.86e-06,0.0,0 STARLINK-3791,1 52269U 22041J   23293.50410387 -.00000386  00000-0 -61630-5 0  9990,2 52269  53.2164  60.0230 0001345  90.7937 269.3209 15.08834106 84061,6917.898,95.438,540.694,538.833,0.0
52269.0,STARLINK-3791,PAYLOAD,2023-10-20 18:27:27,15.08837512,0.0001513,53.2168,58.8328,95.3243,264.7921,4.2781e-07,-2.81e-06,0.0,0 STARLINK-3791,1 52269U 22041J   23293.76906281 -.00000281  00000-0  42781-6 0  9991,2 52269  53.2168  58.8328 0001513  95.3243 264.7921 15.08837512 82888,6917.888,95.438,540.8,538.706,0.0
52269.0,STARLINK-3791,PAYLOAD,2023-10-21 11:56:41,15.0883931,0.0001491,53.2177,55.5606,96.8215,263.2947,5.5017e-05,5.88e-06,0.0,0 STARLINK-3791,1 52269U 22041J   23294.49770258  .00000588  00000-0  55017-4 0  9998,2 52269  53.2177  55.5606 0001491  96.8215 263.2947 15.08839310 82993,6917.882,95.438,540.779,538.716,0.0
52269.0,STARLINK-3791,PAYLOAD,2023-10-21 15:07:27,15.08855035,0.0001505,53.217,54.9648,89.1512,270.9653,0.00025895,3.837e-05,0.0,0 STARLINK-3791,1 52269U 22041J   23294.63017521  .00003837  00000-0  25895-3 0  9991,2 52269  53.2170  54.9648 0001505  89.1512 270.9653 15.08855035 84236,6917.834,95.437,540.741,538.658,0.0
52269.0,STARLINK-3791,PAYLOAD,2023-10-22 00:39:46,15.08844423,0.0001125,53.2178,53.1819,84.2072,275.9048,0.00028478,4.248e-05,0.0,0 STARLINK-3791,1 52269U 22041J   23295.02761894  .00004248  00000-0  28478-3 0  9991,2 52269  53.2178  53.1819 0001125  84.2072 275.9048 15.08844423 84298,6917.867,95.437,540.51,538.954,0.0
52269.0,STARLINK-3791,PAYLOAD,2023-10-22 11:47:29,15.08826596,0.0001859,53.2205,51.106,99.1353,260.9849,1.6358e-06,-2.62e-06,0.0,0 STARLINK-3791,1 52269U 22041J   23295.49131304 -.00000262  00000-0  16358-5 0  9998,2 52269  53.2205  51.1060 0001859  99.1353 260.9849 15.08826596 84368,6917.921,95.438,541.072,538.5,0.0
52269.0,STARLINK-3791,PAYLOAD,2023-10-22 13:22:52,15.08825855,0.0001819,53.2203,50.8089,99.5458,260.574,-1.0672e-05,-4.58e-06,0.0,0 STARLINK-3791,1 52269U 22041J   23295.55755316 -.00000458  00000-0 -10672-4 0  9990,2 52269  53.2203  50.8089 0001819  99.5458 260.5740 15.08825855 83158,6917.924,95.438,541.047,538.53,0.0
52269.0,STARLINK-3791,PAYLOAD,2023-10-22 14:58:15,15.08826438,0.0001568,53.219,50.5118,88.2418,271.8754,1.4722e-05,-5.4e-07,0.0,0 STARLINK-3791,1 52269U 22041J   23295.62379407 -.00000054  00000-0  14722-4 0  9992,2 52269  53.2190  50.5118 0001568  88.2418 271.8754 15.08826438 83164,6917.922,95.438,540.872,538.702,0.0
52269.0,STARLINK-3791,PAYLOAD,2023-10-23 11:38:16,15.08842039,0.0001895,53.2193,46.6466,111.8419,248.2775,0.00021999,3.215e-05,0.0,0 STARLINK-3791,1 52269U 22041J   23296.48490907  .00003215  00000-0  21999-3 0  9990,2 52269  53.2193  46.6466 0001895 111.8419 248.2775 15.08842039 84512,6917.874,95.437,541.05,538.428,0.0
52269.0,STARLINK-3791,PAYLOAD,2023-10-24 11:29:03,15.08836677,0.0001509,53.2179,42.184,77.8482,282.2679,0.00013892,1.923e-05,0.0,0 STARLINK-3791,1 52269U 22041J   23297.47851426  .00001923  00000-0  13892-3 0  9994,2 52269  53.2179  42.1840 0001509  77.8482 282.2679 15.08836677 84664,6917.891,95.438,540.799,538.712,0.0
52269.0,STARLINK-3791,PAYLOAD,2023-10-25 14:30:36,15.08852204,0.0001514,53.2182,37.1278,88.8918,271.2248,-8.8211e-05,-1.692e-05,0.0,0 STARLINK-3791,1 52269U 22041J   23298.60458620 -.00001692  00000-0 -88211-4 0  9992,2 52269  53.2182  37.1278 0001514  88.8918 271.2248 15.08852204 84832,6917.843,95.437,540.755,538.661,0.0
52269.0,STARLINK-3791,PAYLOAD,2023-10-26 00:02:55,15.0884518,0.0001775,53.2186,35.3452,76.7517,283.3673,9.2871e-05,1.19e-05,0.0,0 STARLINK-3791,1 52269U 22041J   23299.00203135  .00001190  00000-0  92871-4 0  9994,2 52269  53.2186  35.3452 0001775  76.7517 283.3673 15.08845180 84897,6917.865,95.437,540.957,538.502,0.0
52269.0,STARLINK-3791,PAYLOAD,2023-10-26 12:46:00,15.0884366,0.0001633,53.218,32.9651,84.4699,275.6479,0.00013415,1.848e-05,0.0,0 STARLINK-3791,1 52269U 22041J   23299.53195153  .00001848  00000-0  13415-3 0  9998,2 52269  53.2180  32.9651 0001633  84.4699 275.6479 15.08843660 83758,6917.869,95.437,540.864,538.605,0.0
52269.0,STARLINK-3791,PAYLOAD,2023-10-27 12:36:46,15.0885716,0.0001417,53.2182,28.5039,94.9779,265.1375,0.00033726,5.086e-05,0.0,0 STARLINK-3791,1 52269U 22041J   23300.52554110  .00005086  00000-0  33726-3 0  9997,2 52269  53.2182  28.5039 0001417  94.9779 265.1375 15.08857160 85128,6917.828,95.436,540.673,538.713,0.0
52269.0,STARLINK-3791,PAYLOAD,2023-10-28 10:52:10,15.08857618,0.0001442,53.217,24.3389,92.7789,267.3368,0.00022069,3.228e-05,0.0,0 STARLINK-3791,1 52269U 22041J   23301.45289451  .00003228  00000-0  22069-3 0  9997,2 52269  53.2170  24.3389 0001442  92.7789 267.3368 15.08857618 85261,6917.827,95.436,540.689,538.694,0.0
52269.0,STARLINK-3791,PAYLOAD,2023-10-28 12:27:33,15.08860038,0.0001463,53.2169,24.0436,80.4947,279.6211,0.00026756,3.975e-05,0.0,0 STARLINK-3791,1 52269U 22041J   23301.51913476  .00003975  00000-0  26756-3 0  9991,2 52269  53.2169  24.0436 0001463  80.4947 279.6211 15.08860038 84051,6917.819,95.436,540.696,538.672,0.0
52269.0,STARLINK-3791,PAYLOAD,2023-10-29 04:21:24,15.08842217,0.0001369,53.2169,21.0684,79.1128,281.0018,-0.00010028,-1.884e-05,0.0,0 STARLINK-3791,1 52269U 22041J   23302.18153785 -.00001884  00000-0 -10028-3 0  9998,2 52269  53.2169  21.0684 0001369  79.1128 281.0018 15.08842217 85371,6917.874,95.437,540.686,538.792,0.0
